CCSDS_OMM_VERS = 2.0
CREATION_DATE  = 
ORIGINATOR     = 

OBJECT_NAME    = STARLINK-37028
OBJECT_ID      = 2026-055J
CENTER_NAME    = EARTH
REF_FRAME      = TEME
TIME_SYSTEM    = UTC
MEAN_ELEMENT_THEORY = SGP/SGP4

EPOCH          = 2026-03-26T04:00:01.999584
MEAN_MOTION    = 16.01577874
ECCENTRICITY   = .0000666
INCLINATION    = 53.1593
RA_OF_ASC_NODE = 255.3416
ARG_OF_PERICENTER = 75.9312
MEAN_ANOMALY   = 119.4022

EPHEMERIS_TYPE = 0
CLASSIFICATION_TYPE = U
NORAD_CAT_ID   = 68270
ELEMENT_SET_NO = 999
REV_AT_EPOCH   = 228
BSTAR          = -.17975E-2
MEAN_MOTION_DOT = -.1035243E-1
MEAN_MOTION_DDOT = .35978E-3

CCSDS_OMM_VERS = 2.0
CREATION_DATE  = 
ORIGINATOR     = 

OBJECT_NAME    = STARLINK-37029
OBJECT_ID      = 2026-055K
CENTER_NAME    = EARTH
REF_FRAME      = TEME
TIME_SYSTEM    = UTC
MEAN_ELEMENT_THEORY = SGP/SGP4

EPOCH          = 2026-03-26T04:00:01.999584
MEAN_MOTION    = 16.01434775
ECCENTRICITY   = .0000747
INCLINATION    = 53.1594
RA_OF_ASC_NODE = 255.3463
ARG_OF_PERICENTER = 79.9582
MEAN_ANOMALY   = 113.2704

EPHEMERIS_TYPE = 0
CLASSIFICATION_TYPE = U
NORAD_CAT_ID   = 68271
ELEMENT_SET_NO = 999
REV_AT_EPOCH   = 228
BSTAR          = -.17975E-2
MEAN_MOTION_DOT = -.1026724E-1
MEAN_MOTION_DDOT = .35388E-3

CCSDS_OMM_VERS = 2.0
CREATION_DATE  = 
ORIGINATOR     = 

OBJECT_NAME    = STARLINK-36974
OBJECT_ID      = 2026-055L
CENTER_NAME    = EARTH
REF_FRAME      = TEME
TIME_SYSTEM    = UTC
MEAN_ELEMENT_THEORY = SGP/SGP4

EPOCH          = 2026-03-26T04:00:01.999584
MEAN_MOTION    = 16.01754695
ECCENTRICITY   = .0000615
INCLINATION    = 53.1593
RA_OF_ASC_NODE = 255.3363
ARG_OF_PERICENTER = 86.5602
MEAN_ANOMALY   = 111.4078

EPHEMERIS_TYPE = 0
CLASSIFICATION_TYPE = U
NORAD_CAT_ID   = 68272
ELEMENT_SET_NO = 999
REV_AT_EPOCH   = 228
BSTAR          = -.17782E-2
MEAN_MOTION_DOT = -.1034733E-1
MEAN_MOTION_DDOT = .36017E-3

CCSDS_OMM_VERS = 2.0
CREATION_DATE  = 
ORIGINATOR     = 

OBJECT_NAME    = STARLINK-37019
OBJECT_ID      = 2026-055M
CENTER_NAME    = EARTH
REF_FRAME      = TEME
TIME_SYSTEM    = UTC
MEAN_ELEMENT_THEORY = SGP/SGP4

EPOCH          = 2026-03-26T04:00:01.999584
MEAN_MOTION    = 16.01875038
ECCENTRICITY   = .0000719
INCLINATION    = 53.1592
RA_OF_ASC_NODE = 255.3321
ARG_OF_PERICENTER = 79.4643
MEAN_ANOMALY   = 120.3035

EPHEMERIS_TYPE = 0
CLASSIFICATION_TYPE = U
NORAD_CAT_ID   = 68273
ELEMENT_SET_NO = 999
REV_AT_EPOCH   = 228
BSTAR          = -.1766E-2
MEAN_MOTION_DOT = -.1034917E-1
MEAN_MOTION_DDOT = .36076E-3

CCSDS_OMM_VERS = 2.0
CREATION_DATE  = 
ORIGINATOR     = 

OBJECT_NAME    = STARLINK-37129
OBJECT_ID      = 2026-055N
CENTER_NAME    = EARTH
REF_FRAME      = TEME
TIME_SYSTEM    = UTC
MEAN_ELEMENT_THEORY = SGP/SGP4

EPOCH          = 2026-03-26T04:00:01.999584
MEAN_MOTION    = 16.02016100
ECCENTRICITY   = .0000636
INCLINATION    = 53.1591
RA_OF_ASC_NODE = 255.3282
ARG_OF_PERICENTER = 83.6037
MEAN_ANOMALY   = 118.2570

EPHEMERIS_TYPE = 0
CLASSIFICATION_TYPE = U
NORAD_CAT_ID   = 68274
ELEMENT_SET_NO = 999
REV_AT_EPOCH   = 228
BSTAR          = -.17552E-2
MEAN_MOTION_DOT = -.103709E-1
MEAN_MOTION_DDOT = .3627E-3

CCSDS_OMM_VERS = 2.0
CREATION_DATE  = 
ORIGINATOR     = 

OBJECT_NAME    = STARLINK-37123
OBJECT_ID      = 2026-055P
CENTER_NAME    = EARTH
REF_FRAME      = TEME
TIME_SYSTEM    = UTC
MEAN_ELEMENT_THEORY = SGP/SGP4

EPOCH          = 2026-03-26T04:00:01.999584
MEAN_MOTION    = 16.02127282
ECCENTRICITY   = .0000694
INCLINATION    = 53.1593
RA_OF_ASC_NODE = 255.3245
ARG_OF_PERICENTER = 80.1298
MEAN_ANOMALY   = 123.4497

EPHEMERIS_TYPE = 0
CLASSIFICATION_TYPE = U
NORAD_CAT_ID   = 68275
ELEMENT_SET_NO = 999
REV_AT_EPOCH   = 228
BSTAR          = -.17287E-2
MEAN_MOTION_DOT = -.1028245E-1
MEAN_MOTION_DDOT = .35756E-3

CCSDS_OMM_VERS = 2.0
CREATION_DATE  = 
ORIGINATOR     = 

OBJECT_NAME    = STARLINK-37125
OBJECT_ID      = 2026-055Q
CENTER_NAME    = EARTH
REF_FRAME      = TEME
TIME_SYSTEM    = UTC
MEAN_ELEMENT_THEORY = SGP/SGP4

EPOCH          = 2026-03-26T04:00:01.999584
MEAN_MOTION    = 16.02298357
ECCENTRICITY   = .0000652
INCLINATION    = 53.1591
RA_OF_ASC_NODE = 255.3195
ARG_OF_PERICENTER = 70.2665
MEAN_ANOMALY   = 135.8227

EPHEMERIS_TYPE = 0
CLASSIFICATION_TYPE = U
NORAD_CAT_ID   = 68276
ELEMENT_SET_NO = 999
REV_AT_EPOCH   = 228
BSTAR          = -.17147E-2
MEAN_MOTION_DOT = -.1030244E-1
MEAN_MOTION_DDOT = .3595E-3

CCSDS_OMM_VERS = 2.0
CREATION_DATE  = 
ORIGINATOR     = 

OBJECT_NAME    = STARLINK-36989
OBJECT_ID      = 2026-055R
CENTER_NAME    = EARTH
REF_FRAME      = TEME
TIME_SYSTEM    = UTC
MEAN_ELEMENT_THEORY = SGP/SGP4

EPOCH          = 2026-03-26T04:00:01.999584
MEAN_MOTION    = 16.02739982
ECCENTRICITY   = .0000748
INCLINATION    = 53.1591
RA_OF_ASC_NODE = 255.3064
ARG_OF_PERICENTER = 95.2218
MEAN_ANOMALY   = 117.2243

EPHEMERIS_TYPE = 0
CLASSIFICATION_TYPE = U
NORAD_CAT_ID   = 68277
ELEMENT_SET_NO = 999
REV_AT_EPOCH   = 228
BSTAR          = -.16794E-2
MEAN_MOTION_DOT = -.1035691E-1
MEAN_MOTION_DDOT = .36475E-3

CCSDS_OMM_VERS = 2.0
CREATION_DATE  = 
ORIGINATOR     = 

OBJECT_NAME    = STARLINK-36982
OBJECT_ID      = 2026-055S
CENTER_NAME    = EARTH
REF_FRAME      = TEME
TIME_SYSTEM    = UTC
MEAN_ELEMENT_THEORY = SGP/SGP4

EPOCH          = 2026-03-26T04:00:01.999584
MEAN_MOTION    = 16.02604579
ECCENTRICITY   = .0000705
INCLINATION    = 53.1591
RA_OF_ASC_NODE = 255.3109
ARG_OF_PERICENTER = 87.9501
MEAN_ANOMALY   = 122.5353

EPHEMERIS_TYPE = 0
CLASSIFICATION_TYPE = U
NORAD_CAT_ID   = 68278
ELEMENT_SET_NO = 999
REV_AT_EPOCH   = 228
BSTAR          = -.16916E-2
MEAN_MOTION_DOT = -.1034868E-1
MEAN_MOTION_DDOT = .36367E-3

CCSDS_OMM_VERS = 2.0
CREATION_DATE  = 
ORIGINATOR     = 

OBJECT_NAME    = STARLINK-36934
OBJECT_ID      = 2026-055T
CENTER_NAME    = EARTH
REF_FRAME      = TEME
TIME_SYSTEM    = UTC
MEAN_ELEMENT_THEORY = SGP/SGP4

EPOCH          = 2026-03-26T04:00:01.999584
MEAN_MOTION    = 16.02465119
ECCENTRICITY   = .0000615
INCLINATION    = 53.1592
RA_OF_ASC_NODE = 255.3149
ARG_OF_PERICENTER = 81.5968
MEAN_ANOMALY   = 126.9016

EPHEMERIS_TYPE = 0
CLASSIFICATION_TYPE = U
NORAD_CAT_ID   = 68279
ELEMENT_SET_NO = 999
REV_AT_EPOCH   = 228
BSTAR          = -.16893E-2
MEAN_MOTION_DOT = -.1025105E-1
MEAN_MOTION_DDOT = .35693E-3

CCSDS_OMM_VERS = 2.0
CREATION_DATE  = 
ORIGINATOR     = 

OBJECT_NAME    = STARLINK-37070
OBJECT_ID      = 2026-055U
CENTER_NAME    = EARTH
REF_FRAME      = TEME
TIME_SYSTEM    = UTC
MEAN_ELEMENT_THEORY = SGP/SGP4

EPOCH          = 2026-03-26T04:00:01.999584
MEAN_MOTION    = 16.02908316
ECCENTRICITY   = .0000654
INCLINATION    = 53.1592
RA_OF_ASC_NODE = 255.3013
ARG_OF_PERICENTER = 85.7254
MEAN_ANOMALY   = 129.1294

EPHEMERIS_TYPE = 0
CLASSIFICATION_TYPE = U
NORAD_CAT_ID   = 68280
ELEMENT_SET_NO = 999
REV_AT_EPOCH   = 228
BSTAR          = -.16544E-2
MEAN_MOTION_DOT = -.1030571E-1
MEAN_MOTION_DDOT = .36217E-3

CCSDS_OMM_VERS = 2.0
CREATION_DATE  = 
ORIGINATOR     = 

OBJECT_NAME    = STARLINK-37134
OBJECT_ID      = 2026-055V
CENTER_NAME    = EARTH
REF_FRAME      = TEME
TIME_SYSTEM    = UTC
MEAN_ELEMENT_THEORY = SGP/SGP4

EPOCH          = 2026-03-26T04:00:01.999584
MEAN_MOTION    = 16.03209328
ECCENTRICITY   = .0000581
INCLINATION    = 53.1588
RA_OF_ASC_NODE = 255.2926
ARG_OF_PERICENTER = 82.6086
MEAN_ANOMALY   = 136.5355

EPHEMERIS_TYPE = 0
CLASSIFICATION_TYPE = U
NORAD_CAT_ID   = 68281
ELEMENT_SET_NO = 999
REV_AT_EPOCH   = 228
BSTAR          = -.16265E-2
MEAN_MOTION_DOT = -.1031482E-1
MEAN_MOTION_DDOT = .36399E-3

