STARLINK-37028          
1 68270U 26055J   26085.16668981 -.01035243  35978-3 -17975-2 0  9993
2 68270  53.1593 255.3416 0000666  75.9312 119.4022 16.01577874  2289
STARLINK-37029          
1 68271U 26055K   26085.16668981 -.01026724  35388-3 -17975-2 0  9993
2 68271  53.1594 255.3463 0000747  79.9582 113.2704 16.01434775  2287
STARLINK-36974          
1 68272U 26055L   26085.16668981 -.01034733  36017-3 -17782-2 0  9999
2 68272  53.1593 255.3363 0000615  86.5602 111.4078 16.01754695  2287
STARLINK-37019          
1 68273U 26055M   26085.16668981 -.01034917  36076-3 -17660-2 0  9994
2 68273  53.1592 255.3321 0000719  79.4643 120.3035 16.01875038  2289
STARLINK-37129          
1 68274U 26055N   26085.16668981 -.01037090  36270-3 -17552-2 0  9996
2 68274  53.1591 255.3282 0000636  83.6037 118.2570 16.02016100  2285
STARLINK-37123          
1 68275U 26055P   26085.16668981 -.01028245  35756-3 -17287-2 0  9992
2 68275  53.1593 255.3245 0000694  80.1298 123.4497 16.02127282  2282
STARLINK-37125          
1 68276U 26055Q   26085.16668981 -.01030244  35950-3 -17147-2 0  9996
2 68276  53.1591 255.3195 0000652  70.2665 135.8227 16.02298357  2287
STARLINK-36989          
1 68277U 26055R   26085.16668981 -.01035691  36475-3 -16794-2 0  9998
2 68277  53.1591 255.3064 0000748  95.2218 117.2243 16.02739982  2286
STARLINK-36982          
1 68278U 26055S   26085.16668981 -.01034868  36367-3 -16916-2 0  9990
2 68278  53.1591 255.3109 0000705  87.9501 122.5353 16.02604579  2287
STARLINK-36934          
1 68279U 26055T   26085.16668981 -.01025105  35693-3 -16893-2 0  9990
2 68279  53.1592 255.3149 0000615  81.5968 126.9016 16.02465119  2289
STARLINK-37070          
1 68280U 26055U   26085.16668981 -.01030571  36217-3 -16544-2 0  9991
2 68280  53.1592 255.3013 0000654  85.7254 129.1294 16.02908316  2282
STARLINK-37134          
1 68281U 26055V   26085.16668981 -.01031482  36399-3 -16265-2 0  9995
2 68281  53.1588 255.2926 0000581  82.6086 136.5355 16.03209328  2286
